[{"OBJECT_NAME":"HAIYANG-1B","OBJECT_ID":"2007-010A","EPOCH":"2026-03-09T22:15:19.251360","MEAN_MOTION":14.3099952,"ECCENTRICITY":0.00143047,"INCLINATION":98.343,"RA_OF_ASC_NODE":54.6595,"ARG_OF_PERICENTER":132.0498,"MEAN_ANOMALY":228.1905,"EPHEMERIS_TYPE":0,"CLASSIFICATION_TYPE":"U","NORAD_CAT_ID":31113,"ELEMENT_SET_NO":999,"REV_AT_EPOCH":98643,"BSTAR":7.2604842e-5,"MEAN_MOTION_DOT":1.5e-6,"MEAN_MOTION_DDOT":0},{"OBJECT_NAME":"NOAA 16 DEB","OBJECT_ID":"2000-055RU","EPOCH":"2026-02-23T02:10:47.458848","MEAN_MOTION":14.18861464,"ECCENTRICITY":0.00839854,"INCLINATION":98.7678,"RA_OF_ASC_NODE":3.0462,"ARG_OF_PERICENTER":104.3705,"MEAN_ANOMALY":256.6812,"EPHEMERIS_TYPE":0,"CLASSIFICATION_TYPE":"U","NORAD_CAT_ID":42376,"ELEMENT_SET_NO":999,"REV_AT_EPOCH":51228,"BSTAR":0.0043347073,"MEAN_MOTION_DOT":9.312e-5,"MEAN_MOTION_DDOT":0}]
